0 TITAN 3A TRANSTAGE R/B
1 01000U 65008B   13282.65336215  .00000008  00000-0  00000+0 0  5844
2 01000 032.1391 166.3408 0011810 174.6978 215.5027 09.88887803758992
0 TITAN 3A TRANSTAGE R/B
1 01000U 65008B   13286.81252333  .00000008  00000-0  00000+0 0  5855
2 01000 032.1390 156.4740 0011856 189.5966 262.2569 09.88887896759401
0 TITAN 3A TRANSTAGE R/B
1 01000U 65008B   13291.07737878  .00000008  00000-0  00000+0 0  5862
2 01000 032.1389 146.3564 0011907 204.7128 325.4502 09.88887904759823
0 TITAN 3A TRANSTAGE R/B
1 01000U 65008B   13295.47542110  .00000008  00000-0  00000+0 0  5874
2 01000 032.1394 135.9222 0011942 220.3773 142.7228 09.88887891760263
